<?xml version="1.0" encoding="UTF-8"?>
<kml xmlns="http://www.opengis.net/kml/2.2">
  <Document>
    <name>Polígono Georeferenciado - Península Valdés</name>
    
    <Placemark>
      <name>Península Valdés</name>
      <Polygon>
        <outerBoundaryIs>
          <LinearRing>
            <coordinates>-64.858333330000065,-42.560129349051671,0 -64.858333330000065,-42.130718661800252,0 -64.856284200705375,-42.131705352766986,0 -64.850952377895553,-42.134044852083576,0 -64.850299888182434,-42.134335018446514,0 -64.849652135433175,-42.134631009804409,0 -64.849009213513639,-42.13493278329166,0 -64.848371215594028,-42.135240295204831,0 -64.847738234135534,-42.135553501008914,0 -64.847110360876812,-42.135872355343608,0 -64.846448413046389,-42.136010091119935,0 -64.844153284290414,-42.136520593313946,0 -64.84174320007854,-42.137129221048362,0 -64.839365737498937,-42.137805242927527,0 -64.837024295736299,-42.138547692586428,0 -64.834722222818769,-42.139355508680623,0 -64.832462810857024,-42.14022753639405,0 -64.830249291359962,-42.141162529079644,0 -64.830101242192541,-42.141228038857811,0 -64.828519963573626,-42.141441289311061,0 -64.826032465212322,-42.14184240142955,0 -64.82356710935106,-42.142313227934764,0 -64.821127419977401,-42.142853095800859,0 -64.818716884636459,-42.143461233310468,0 -64.816338949476474,-42.144136771150372,0 -64.813997014352069,-42.144878743646537,0 -64.812922942653401,-42.145246804528597,0 -64.810395344057554,-42.144932474176528,0 -64.807870670824002,-42.144691614709942,0 -64.805335574715784,-42.144521970781319,0 -64.802793678793591,-42.144423784731565,0 -64.800248615756274,-42.144397196774456,0 -64.797704022785595,-42.144442244798036,0 -64.795163536385004,-42.144558864311598,0 -64.792630787219636,-42.14474688853791,0 -64.790109394963991,-42.14500604865043,0 -64.787602963165313,-42.145335974155444,0 -64.78511507412874,-42.145736193418742,0 -64.782649283832413,-42.146206134335358,0 -64.780209116878396,-42.146745125142459,0 -64.777821530750472,-42.147346117341364,0 -64.77594177372282,-42.147848642375024,0 -64.773551504216584,-42.148526423479403,0 -64.771208926923151,-42.149267513213971,0 -64.768905656666291,-42.150073990997207,0 -64.766644987252221,-42.150944703924033,0 -64.766521993801035,-42.150994415081385,0 -64.761138053518536,-42.153175675061327,0 -64.752932761343473,-42.155957573620498,0 -64.751046976822451,-42.156623285760752,0 -64.750392897801405,-42.156866795400717,0 -64.744762590181892,-42.158991245376335,0 -64.731191376899943,-42.162798907051823,0 -64.726790635101395,-42.163474532038535,0 -64.726139375753988,-42.163577433198505,0 -64.725395998915317,-42.163613036794715,0 -64.724362130229025,-42.163668498969173,0 -64.721828446171671,-42.163854946080093,0 -64.719306042562891,-42.164112534774574,0 -64.716798524384657,-42.164440896799171,0 -64.716542742333871,-42.164481867627664,0 -64.716415884123776,-42.164474432288038,0 -64.714694450234418,-42.164398773828935,0 -64.706064511214663,-42.164101612626403,0 -64.705243445953968,-42.164077044219248,0 -64.702697690003745,-42.164048281683094,0 -64.700152293863624,-42.164091153736265,0 -64.697610895177888,-42.164205598989177,0 -64.697150304680022,-42.164239388062583,0 -64.695077125906423,-42.164391453763258,0 -64.692554607170777,-42.164648452324272,0 -64.690046944115323,-42.164976227259899,0 -64.689621328446663,-42.165039113037992,0 -64.682534742224107,-42.166103607831701,0 -64.672613933778877,-42.167464741686295,0 -64.67193264333595,-42.167560884461679,0 -64.669443214705822,-42.167958570853713,0 -64.666975764536105,-42.168425999156867,0 -64.664533819780402,-42.168962501191835,0 -64.662120871177706,-42.169567310042311,0 -64.661256241140705,-42.1698114879241,0 -64.659740368293754,-42.170239561144356,0 -64.6593651136875,-42.170357797401998,0 -64.658100307043597,-42.170576995458077,0 -64.658007080313936,-42.170593203588574,0 -64.655539449363445,-42.171060382980698,0 -64.653097312314884,-42.171596638444221,0 -64.650684160179679,-42.172201203414723,0 -64.648532840341346,-42.172808463929847,0 -64.645331783412558,-42.173131095096821,0 -64.644589322824629,-42.173209050169824,0 -64.64384807449099,-42.173293150730558,0 -64.643108130271187,-42.173383386353855,0 -64.642369581864202,-42.173479745854337,0 -64.641632520797216,-42.173582217287681,0 -64.640897038414266,-42.173690787952083,0 -64.640163225864967,-42.173805444389814,0 -64.639431174093488,-42.173926172389024,0 -64.638700973827085,-42.174052956985257,0 -64.630062805776888,-42.17559021294025,0 -64.621470408271477,-42.176834831067303,0 -64.610806276932024,-42.177857479600249,0 -64.609081613111883,-42.178039683064839,0 -64.606573036676181,-42.178365618033695,0 -64.604082810773264,-42.178761872710162,0 -64.601614494691901,-42.179227880642586,0 -64.599171616612011,-42.179762975677271,0 -64.596757668594236,-42.180366392904929,0 -64.594376101619574,-42.181037269747144,0 -64.593151845314821,-42.18142211309992,0 -64.585084953375414,-42.181601291031036,0 -64.58431839426585,-42.181621541050554,0 -64.58355219486242,-42.181648283870871,0 -64.582786454498589,-42.181681516021278,0 -64.582021272448543,-42.181721233189798,0 -64.581256747914594,-42.181767430223616,0 -64.580492980014171,-42.181820101129915,0 -64.579458043908303,-42.181895891555037,0 -64.569335724103496,-42.182636666153385,0 -64.556766291941628,-42.18329542970411,0 -64.556267562630723,-42.183322924949735,0 -64.555165342509014,-42.18339353156037,0 -64.548446979493974,-42.183865078161929,0 -64.547014317490422,-42.183977100964192,0 -64.545568848809808,-42.184113566597723,0 -64.540972026466207,-42.184585089055545,0 -64.540309366967946,-42.184655435679339,0 -64.539647750354021,-42.184731020286101,0 -64.538987251424643,-42.184811834327988,0 -64.538327944854458,-42.184897868666084,0 -64.53766990518416,-42.184989113571191,0 -64.537013206812091,-42.185085558725056,0 -64.535732753038204,-42.185033122766775,0 -64.534404031125078,-42.185007206106128,0 -64.529571556367884,-42.184948332576582,0 -64.528353866898442,-42.184941661244153,0 -64.525807623104228,-42.184980649098989,0 -64.523265180956102,-42.185091212887734,0 -64.520730173893554,-42.185273194463512,0 -64.519586278181862,-42.185378966842123,0 -64.517342562041549,-42.185600931400501,0 -64.516355057911881,-42.185557995178428,0 -64.515597323425126,-42.185528230665106,0 -64.514839186562796,-42.18550481767236,0 -64.514080743501623,-42.185487759166755,0 -64.513322090456768,-42.185477057308844,0 -64.512563323669767,-42.185472713452604,0 -64.511804539396337,-42.185474728145458,0 -64.5110458338943,-42.185483101128334,0 -64.510287303411488,-42.185497831335297,0 -64.509529044173505,-42.185518916894097,0 -64.508771152371722,-42.185546355126128,0 -64.508013724151084,-42.185580142546932,0 -64.506276349901412,-42.185664938426051,0 -64.505809098771351,-42.185655690257903,0 -64.504941575427281,-42.185592599412345,0 -64.503387533562204,-42.185493073889475,0 -64.500844655246041,-42.185388178760434,0 -64.498298266766383,-42.185354867445852,0 -64.495752007190148,-42.185393187414647,0 -64.493209515387122,-42.185503083764161,0 -64.490674424866782,-42.185684399298715,0 -64.488150358622136,-42.185936874753537,0 -64.485640923988456,-42.186260149163537,0 -64.484443469384246,-42.18644935391589,0 -64.483720651124941,-42.186432736086267,0 -64.48299763304054,-42.186421960042068,0 -64.482274500423188,-42.186417027051348,0 -64.481551338578484,-42.186417937692831,0 -64.480828232815284,-42.186424691855798,0 -64.480105268435736,-42.186437288740329,0 -64.479382530725417,-42.186455726856998,0 -64.478660104943188,-42.186480004027565,0 -64.477938076311304,-42.186510117384756,0 -64.475266903273393,-42.186631614003538,0 -64.475150103407742,-42.186627631067573,0 -64.472603695428916,-42.186593748634614,0 -64.470057387347708,-42.186631497025338,0 -64.467514818102813,-42.186740822151627,0 -64.464979621313091,-42.186921567631757,0 -64.462455420121898,-42.187173475013488,0 -64.45994582205509,-42.187496184141246,0 -64.458258667361832,-42.187762359516434,0 -64.457454413901203,-42.187889233668457,0 -64.454984756620021,-42.188352061712841,0 -64.452540380287147,-42.188884006654952,0 -64.452397111815685,-42.1889196120744,0 -64.39029242572181,-42.186732634678684,0 -64.389620260706565,-42.186573843867492,0 -64.38894565389684,-42.186420891865964,0 -64.388268696945843,-42.186273799447541,0 -64.387589481824079,-42.186132586589437,0 -64.386908100806679,-42.185997272470161,0 -64.386224646461201,-42.185867875466656,0 -64.385539211634779,-42.185744413152143,0 -64.38485188944199,-42.185626902293457,0 -64.384162773252029,-42.185515358849003,0 -64.383634898831161,-42.185397641118747,0 -64.383556261408643,-42.185380104471164,0 -64.382947652143869,-42.185250169343867,0 -64.382337029758887,-42.185125571459736,0 -64.381724478832098,-42.185006328072241,0 -64.38111008420745,-42.184892455693053,0 -64.380493930982695,-42.184783970089967,0 -64.379876104497782,-42.184680886284596,0 -64.379708139516794,-42.184652896895869,0 -64.379296270265669,-42.184481131619265,0 -64.378156343751044,-42.184005726078766,0 -64.377096364953687,-42.183602071723442,0 -64.375889588115299,-42.183142496639931,0 -64.373580595065576,-42.182343636326998,0 -64.371232666809135,-42.181610286979435,0 -64.368849160835893,-42.180943496745741,0 -64.366433485142281,-42.180344218595422,0 -64.363989093385712,-42.179813308966573,0 -64.361519479976025,-42.179351526550356,0 -64.359028175110311,-42.17895953121463,0 -64.356518739759238,-42.178637883068077,0 -64.353994760610078,-42.178387041665999,0 -64.352497534001344,-42.178277798879215,0 -64.351684720313528,-42.17819851551485,0 -64.350552038540897,-42.177917329017767,0 -64.348107883305786,-42.177386084620331,0 -64.345638490295727,-42.176923963694421,0 -64.343147389395654,-42.176531626590595,0 -64.342194103106948,-42.176401683044944,0 -64.341486174775824,-42.176201498450538,0 -64.340510198755695,-42.175938495711236,0 -64.340104754591422,-42.175830325811155,0 -64.337689562901772,-42.175230449866312,0 -64.335245626930941,-42.174698934819389,0 -64.332776440442842,-42.174236540225159,0 -64.332095229445216,-42.174129174516679,0 -64.33056068754756,-42.173747909457553,0 -64.328116872886113,-42.173216244426214,0 -64.32564780064385,-42.172753698172848,0 -64.323157000250987,-42.172360931654701,0 -64.322411137485133,-42.172257478101287,0 -64.309313207188808,-42.170496709077355,0 -64.309152144475405,-42.170475197817353,0 -64.298265167775341,-42.169030761860348,0 -64.29781626159135,-42.168972345969308,0 -64.292305989033579,-42.16826944826002,0 -64.288692073810466,-42.16756079362974,0 -64.287961269258986,-42.167420730971656,0 -64.287228401746432,-42.167286771845887,0 -64.286493563320519,-42.167158933071612,0 -64.285756846274595,-42.167037230699343,0 -64.285018343136187,-42.166921680008748,0 -64.284278146655552,-42.166812295506844,0 -64.283536349793806,-42.166709090926325,0 -64.282793045711699,-42.166612079223505,0 -64.282048327757749,-42.166521272577121,0 -64.281302289456619,-42.166436682386447,0 -64.270844333887453,-42.16529498613221,0 -64.269949926265269,-42.165151596667627,0 -64.268139087490496,-42.164695148566423,0 -64.266699503598957,-42.164345645408595,0 -64.264256628687733,-42.163812635138989,0 -64.261788431287741,-42.163348728520816,0 -64.259298439589728,-42.162954588451285,0 -64.256829941876433,-42.162635342179335,0 -64.251156675267751,-42.16198216105461,0 -64.247615439734602,-42.161362984282462,0 -64.23889159705017,-42.159483794030379,0 -64.238124768121594,-42.15932223335281,0 -64.237355423917933,-42.159167439595137,0 -64.236583672243512,-42.159019434439934,0 -64.235809621237451,-42.158878238618229,0 -64.235033379358669,-42.158743871907099,0 -64.234255055370781,-42.158616353126511,0 -64.233474758326835,-42.158495700136989,0 -64.232692597554404,-42.15838192983702,0 -64.224092751346305,-42.157169966720012,0 -64.222476201234841,-42.156957244836605,0 -64.217912494661647,-42.156399227558836,0 -64.212312922870339,-42.155336142177354,0 -64.210958378354647,-42.155090034093291,0 -64.21079640165614,-42.155062080940809,0 -64.203889998448659,-42.153876665724603,0 -64.194505387954948,-42.151876599160026,0 -64.193739857308117,-42.151717045923519,0 -64.191272695028388,-42.151251639540611,0 -64.188783666144445,-42.150855985083489,0 -64.18627632840095,-42.150530647878135,0 -64.184353624899657,-42.150330047321511,0 -64.178790483552675,-42.149810261823482,0 -64.175817993594194,-42.149376102257357,0 -64.1750402370308,-42.149266024364131,0 -64.1742607955794,-42.14916276272502,0 -64.17347977703875,-42.149066331615714,0 -64.172697289424121,-42.148976744367062,0 -64.171913440952309,-42.148894013363446,0 -64.171128340026897,-42.148818150041102,0 -64.170342095223234,-42.148749164886183,0 -64.167513274585318,-42.148513474088951,0 -64.165532649108556,-42.148372760907925,0 -64.164723798475649,-42.148232094115698,0 -64.162264712694025,-42.147779927304917,0 -64.160013058157702,-42.146916625031153,0 -64.157708236007494,-42.146113491695793,0 -64.155364282133135,-42.145375792724366,0 -64.152984548393079,-42.14470458247434,0 -64.150572437438996,-42.144100820222945,0 -64.148558450839971,-42.143659048888992,0 -64.14722428106586,-42.142880214457932,0 -64.145164002838214,-42.14176852819373,0 -64.143048746163473,-42.140715623823944,0 -64.140881538048944,-42.13972300663314,0 -64.138665479323919,-42.138792095633292,0 -64.136403740218782,-42.137924221547351,0 -64.134099555847982,-42.137120624919149,0 -64.131756221603524,-42.136382454351612,0 -64.129377088464423,-42.135710764875753,0 -64.126965558230097,-42.135106516452993,0 -64.124525078683106,-42.134570572612851,0 -64.122059138688499,-42.134103699227424,0 -64.119571263236608,-42.133706563425015,0 -64.117065008436256,-42.133379732643881,0 -64.116521758583147,-42.133324560554072,0 -64.11538371262607,-42.132887564520296,0 -64.113168263771627,-42.132112916065942,0 -64.112718967211748,-42.131963178896989,0 -64.112059048170607,-42.131746588865461,0 -64.111395837737234,-42.13153564671974,0 -64.110729423124198,-42.131330380184949,0 -64.110059891962777,-42.131130816239889,0 -64.109587892269829,-42.130682765109036,0 -64.109108701494634,-42.130238965570818,0 -64.108622388868781,-42.129799481600912,0 -64.10812902464599,-42.129364376551351,0 -64.10762868009229,-42.128933713141471,0 -64.107121427475306,-42.128507553449154,0 -64.106607340054083,-42.128085958901721,0 -64.106086492068457,-42.127668990267033,0 -64.105558958728196,-42.127256707645039,0 -64.105269959543975,-42.127009382626497,0 -64.103528835258587,-42.125628478939561,0 -64.101718837409223,-42.124297584741541,0 -64.099842558923513,-42.123018603359156,0 -64.097902687025339,-42.121793363753625,0 -64.095901999388886,-42.120623617918739,0 -64.094336356298754,-42.119769472625784,0 -64.093699683888332,-42.119432530580539,0 -64.093206693008085,-42.119174093698547,0 -64.091093070722749,-42.118120259822561,0 -64.088927467799664,-42.117126689257276,0 -64.086712982788171,-42.11619480237875,0 -64.084452783683901,-42.115325931305705,0 -64.082150103414733,-42.114521318007327,0 -64.079808235237309,-42.113782112539361,0 -64.077430528049689,-42.113109371411177,0 -64.077003184894124,-42.113002047428601,0 -64.075698596237856,-42.111966467868889,0 -64.073889575720358,-42.110635151394696,0 -64.07201426704917,-42.10935573163151,0 -64.070075356068315,-42.108130038169683,0 -64.068075619085334,-42.106959823653902,0 -64.066017918900712,-42.105846761290771,0 -64.0639052007175,-42.104792442469282,0 -64.061740487936262,-42.103798374499135,0 -64.059526877841748,-42.102865978468145,0 -64.057267537186718,-42.10199658722351,0 -64.054965697680018,-42.101191443478115,0 -64.052624651384278,-42.100451698045859,0 -64.050247746030706,-42.099778408207584,0 -64.047838380256252,-42.09917253621024,0 -64.04539999877106,-42.098634947901068,0 -64.04293608746211,-42.098166411499122,0 -64.040450168439961,-42.097767596505449,0 -64.040200653507739,-42.09773159403364,0 -64.038628396892051,-42.097507017022146,0 -64.036373554743648,-42.097214465137007,0 -64.035107433677794,-42.097084907912233,0 -64.03470341327106,-42.09692932404144,0 -64.032915045504396,-42.096302305571804,0 -64.031474183312028,-42.094737155497285,0 -64.02995699979266,-42.093217352825953,0 -64.028363758568716,-42.091741379094181,0 -64.026696744018707,-42.090311345571358,0 -64.02495834556504,-42.088929297662261,0 -64.024436760085109,-42.088544865367346,0 -64.024004617216065,-42.088086844922017,0 -64.023565018868211,-42.087632779757044,0 -64.023118030416285,-42.087182737230421,0 -64.022663718327237,-42.086736784101902,0 -64.022202150150051,-42.086294986523178,0 -64.02173339450583,-42.085857410027991,0 -64.021257521077544,-42.085424119522536,0 -64.020774600599609,-42.084995179275836,0 -64.020284704847313,-42.084570652910308,0 -64.019787906626263,-42.084150603392281,0 -64.019037118711381,-42.083398196757834,0 -64.01755475957502,-42.082020768207258,0 -64.016368033735432,-42.080957000693026,0 -64.016257651531262,-42.080858310938318,0 -64.014591191467986,-42.079428110730071,0 -64.012853351146077,-42.07804588877174,0 -64.011046620805118,-42.076713621941998,0 -64.009173588721183,-42.075433215539157,0 -64.007236937498618,-42.074206500569801,0 -64.005239440230056,-42.073035231144203,0 -64.003183956530847,-42.071921081981344,0 -64.001073428452671,-42.070865646027663,0 -63.998910876283134,-42.069870432192658,0 -63.996699394236678,-42.068936863204513,0 -63.994442146042658,-42.068066273588556,0 -63.992142360437605,-42.067259907771493,0 -63.98980332656722,-42.066518918314287,0 -63.987428389304725,-42.065844364275328,0 -63.985020944492476,-42.065237209707313,0 -63.982584434113107,-42.064698322288834,0 -63.980122341396871,-42.064228472093397,0 -63.979330982567525,-42.064101008330645,0 -63.977775429147165,-42.063188136643561,0 -63.975720756328769,-42.062073510782724,0 -63.973611023176431,-42.061017584714996,0 -63.971449248848963,-42.060021868051322,0 -63.969238526456316,-42.059087784239111,0 -63.966982018649581,-42.058216668539821,0 -63.964682953114462,-42.05740976613216,0 -63.962344617974608,-42.056668230343647,0 -63.959970357111956,-42.055993121012968,0 -63.957563565408982,-42.055385402985713,0 -63.955127683921631,-42.054845944744656,0 -63.952666194987806,-42.054375517177846,0 -63.951523500776538,-42.05419115099356,0 -63.950981699142432,-42.053998012822447,0 -63.950436675815716,-42.053809979575554,0 -63.949888517375648,-42.053627081110015,0 -63.949337310896937,-42.053449346467218,0 -63.948783143936019,-42.053276803868329,0 -63.948226104517211,-42.053109480709757,0 -63.947666281118728,-42.052947403558804,0 -63.94655073740239,-42.052449023605561,0 -63.945934042461154,-42.052176825624962,0 -63.945313489075915,-42.051909546514615,0 -63.944689147878222,-42.051647216672102,0 -63.94406108992775,-42.051389865931583,0 -63.943429386704139,-42.051137523560435,0 -63.942794110099058,-42.0508902182561,0 -63.942155332407886,-42.050647978142599,0 -63.940749344999084,-42.050121797245467,0 -63.936803916692995,-42.048638902566587,0 -63.936108760411962,-42.048380690838989,0 -63.935409411781322,-42.048128851196282,0 -63.934705975918199,-42.047883421469152,0 -63.933998558549931,-42.04764443852487,0 -63.933287265998132,-42.047411938261597,0 -63.932572205163076,-42.047185955603219,0 -63.931853483507339,-42.046966524493961,0 -63.931131209040046,-42.04675367789347,0 -63.93008590882318,-42.046252405424028,0 -63.929458007433844,-42.04595494186988,0 -63.928825727608974,-42.045662680078976,0 -63.928189146920488,-42.045375655876263,0 -63.92754834346448,-42.045093904444087,0 -63.926903395851262,-42.044817460317752,0 -63.926254383196117,-42.044546357381613,0 -63.925601385109353,-42.044280628864747,0 -63.924944481686737,-42.044020307336829,0 -63.924283753499722,-42.043765424704439,0 -63.923619281585523,-42.043516012206908,0 -63.922951147437189,-42.043272100412686,0 -63.922279432993804,-42.043033719215515,0 -63.918607724976368,-42.041749142261317,0 -63.917915661245111,-42.041510565400429,0 -63.917220011885803,-42.041277859656162,0 -63.916520866509373,-42.041051054987342,0 -63.915818315173652,-42.04083018059265,0 -63.915112448372263,-42.040615264906741,0 -63.914403357022607,-42.040406335596728,0 -63.913691132454538,-42.040203419558708,0 -63.912975866398426,-42.040006542914085,0 -63.912257650973608,-42.039815731006499,0 -63.901490267872838,-42.037005714684923,0 -63.899803796805642,-42.036513547340974,0 -63.898116271947949,-42.036040425901021,0 -63.895710868559703,-42.035431438213557,0 -63.893276319805722,-42.034890693624341,0 -63.890816106133116,-42.034418964856791,0 -63.888333744404122,-42.03401692596637,0 -63.885832782900408,-42.03368515138483,0 -63.883316796283836,-42.033424115105809,0 -63.883079351746453,-42.033406274518704,0 -63.877847537433702,-42.032249714973666,0 -63.876604907672167,-42.031870783960223,0 -63.876364223164593,-42.031797792040713,0 -63.873991861643816,-42.031120941936649,0 -63.871586893209681,-42.030511457332821,0 -63.869152756332049,-42.029970209233078,0 -63.866772859205312,-42.029512158338733,0 -63.860521003887293,-42.028399253933046,0 -63.860441078512586,-42.028385062378092,0 -63.857959168897622,-42.027982375495547,0 -63.855458628318416,-42.027649947356558,0 -63.852943030839874,-42.027388252886468,0 -63.851195044931458,-42.027256428463126,0 -63.838224263639894,-42.024799834176484,0 -63.837453842812479,-42.02465748019241,0 -63.836681221245023,-42.024521925374245,0 -63.8359065067974,-42.024393188637667,0 -63.835129807619495,-42.024271287946739,0 -63.834351232136108,-42.024156240311008,0 -63.833570889031918,-42.024048061783304,0 -63.825131142263849,-42.022916165948985,0 -63.823800101835914,-42.022747882360157,0 -63.821575624138752,-42.022512143029083,0 -63.807490631246772,-42.021197432348018,0 -63.807199876529936,-42.021170754772186,0 -63.804673242604181,-42.020979168782468,0 -63.802138708929029,-42.020858958243458,0 -63.799599897752316,-42.020810294755755,0 -63.797060437371528,-42.020833247665287,0 -63.795858922674824,-42.020869089973452,0 -63.792306316981382,-42.020998777014732,0 -63.7915261533375,-42.021030637940136,0 -63.790746539433179,-42.021069265130365,0 -63.789967580725609,-42.021114653354353,0 -63.789189382583736,-42.021166796466467,0 -63.788412050274218,-42.021225687407387,0 -63.787635688947212,-42.021291318204945,0 -63.786860403622299,-42.021363679975238,0 -63.786086299174329,-42.021442762923918,0 -63.78531348031931,-42.021528556347306,0 -63.784542051600461,-42.021621048634152,0 -63.783772117374042,-42.021720227266783,0 -63.779939157175697,-42.022231039560822,0 -63.778891407541643,-42.022240856974513,0 -63.774058379344496,-42.022161070544279,0 -63.773046902803145,-42.022150033725154,0 -63.770507404824002,-42.022172397199547,0 -63.767970857052163,-42.022266344023016,0 -63.765440884531543,-42.022431739725754,0 -63.76292110295482,-42.022668347726196,0 -63.760415113532055,-42.022975829667857,0 -63.757926497879701,-42.023353745900941,0 -63.757304687321536,-42.023459654541256,0 -63.749768374344683,-42.02477109349875,0 -63.749056390848317,-42.024897177549263,0 -63.74834639556115,-42.025029351394892,0 -63.747638482116393,-42.02516759760141,0 -63.746932743874346,-42.02531189793384,0 -63.74622927391021,-42.025462233358731,0 -63.7455281650019,-42.02561858404674,0 -63.744829509617787,-42.025780929375152,0 -63.744133399904662,-42.025949247930711,0 -63.743439927675617,-42.026123517512303,0 -63.742749184398022,-42.026303715133899,0 -63.742061261181554,-42.026489817027638,0 -63.741146054209572,-42.026710997759722,0 -63.736853479966797,-42.027812728103846,0 -63.736750641673083,-42.027839189606816,0 -63.734366527863081,-42.028492151194349,0 -63.732017212203836,-42.02921186012648,0 -63.729706053785698,-42.029997287495995,0 -63.727436357495804,-42.03084731042928,0 -63.725211369317066,-42.031760713681997,0 -63.72303427170899,-42.03273619136629,0 -63.720908179076204,-42.03377234880697,0 -63.718836133331699,-42.034867704523876,0 -63.716821099560512,-42.036020692338205,0 -63.714865961789897,-42.037229663599483,0 -63.71297351887258,-42.038492889530204,0 -63.711146480487983,-42.039808563684637,0 -63.709387463267944,-42.041174804518981,0 -63.7076989870517,-42.04258965806855,0 -63.706083471276251,-42.044051100728829,0 -63.704783545525061,-42.045314166881433,0 -63.70153994160372,-42.048571525453141,0 -63.700970716630202,-42.049048368077258,0 -63.699433425039118,-42.050241927084905,0 -63.697744485001962,-42.051656620604199,0 -63.696128507901648,-42.053117909561344,0 -63.694587809961497,-42.054623703814265,0 -63.693124600203802,-42.056171849428857,0 -63.692510357344375,-42.056860769510564,0 -63.691835130391304,-42.057631817868554,0 -63.691456330376809,-42.058069320162986,0 -63.691083655006452,-42.058509735065584,0 -63.690717144711734,-42.05895301494121,0 -63.690356839260026,-42.059399111843952,0 -63.690002777749967,-42.059847977522161,0 -63.689654998607381,-42.060299563424067,0 -63.689015384357674,-42.061140174088898,0 -63.688145555477107,-42.06233081629086,0 -63.687042188604593,-42.063254596304112,0 -63.685425666433197,-42.064715718310573,0 -63.68388442893599,-42.066221352694171,0 -63.682420685906116,-42.067769345751508,0 -63.681036536751648,-42.069357483044712,0 -63.679733967473673,-42.070983492556074,0 -63.678514847802774,-42.072645047925782,0 -63.677380928499346,-42.074339771767676,0 -63.676333838820462,-42.076065239059318,0 -63.675375084158297,-42.077818980600171,0 -63.67532184712735,-42.077922230916897,0 -63.672660225809871,-42.083100910359363,0 -63.671844280735627,-42.0847771422413,0 -63.671560033752435,-42.085408899857683,0 -63.66979997276848,-42.08940862937461,0 -63.667832155942897,-42.092718236657412,0 -63.667533601297116,-42.093227963972211,0 -63.667272262555578,-42.093687298116329,0 -63.663876259431973,-42.099739296391277,0 -63.663591023082375,-42.100255633442011,0 -63.663313536785147,-42.100774308008376,0 -63.663043835251692,-42.101295255557403,0 -63.66278195222722,-42.101818411271765,0 -63.66252792048676,-42.102343710058015,0 -63.662281771830898,-42.102871086554437,0 -63.662043537081715,-42.103400475139189,0 -63.661813246078857,-42.103931809938629,0 -63.661590927675817,-42.10446502483525,0 -63.659970738877462,-42.108428588612639,0 -63.657842354159342,-42.112755883557583,0 -63.657374243063011,-42.113739152769689,0 -63.656988715056151,-42.114602040075631,0 -63.65256611149352,-42.124807511388504,0 -63.652333690919768,-42.125354446996113,0 -63.652109705399987,-42.125903329870681,0 -63.651894184575063,-42.126454087906332,0 -63.651687156976173,-42.127006648749266,0 -63.651488650021058,-42.127560939806799,0 -63.651298690010172,-42.128116888257281,0 -63.651117302123204,-42.128674421059451,0 -63.65094451041557,-42.129233464961949,0 -63.650263236832238,-42.131496828722966,0 -63.646198329445532,-42.137767863910696,0 -63.646034985598696,-42.138021649548165,0 -63.645908232251237,-42.13822114629123,0 -63.641376171535185,-42.145394074633607,0 -63.640453650239238,-42.146919649875024,0 -63.639492760914756,-42.148673019513161,0 -63.638621668676585,-42.150452183450803,0 -63.637841627756849,-42.152254595258213,0 -63.637153762376094,-42.15407767502451,0 -63.636559065093991,-42.155918813041204,0 -63.636058395346161,-42.15777537353064,0 -63.6356524781703,-42.159644698411661,0 -63.635540742479243,-42.16032087013415,0 -63.635325299844148,-42.160803661443559,0 -63.635117444013808,-42.161288290643192,0 -63.634917203470316,-42.16177469172608,0 -63.634724605660423,-42.162262798442448,0 -63.63453967699192,-42.162752544308766,0 -63.634362442829769,-42.163243862616802,0 -63.634192927492705,-42.163736686442547,0 -63.634031154249733,-42.164230948655543,0 -63.632796945163385,-42.168029945690826,0 -63.632619162747112,-42.168392854695909,0 -63.632335407759328,-42.16902458068725,0 -63.631659120066814,-42.170285527680576,0 -63.628696778748264,-42.175396167689925,0 -63.623638003090413,-42.18330781047127,0 -63.622717196958654,-42.184811150617328,0 -63.620748162359853,-42.188171564697427,0 -63.618241385961596,-42.192072967486972,0 -63.617376045349076,-42.193078530287281,0 -63.610033470170166,-42.201414462775944,0 -63.608164077238882,-42.203231406738546,0 -63.600255004350508,-42.210660071729158,0 -63.599795072161804,-42.211096950141744,0 -63.599341678348836,-42.211537591178654,0 -63.598894878712649,-42.211981940735157,0 -63.598454728248065,-42.212429944250097,0 -63.598021281136987,-42.212881546712623,0 -63.597594590741622,-42.213336692668967,0 -63.597174709597994,-42.213795326229118,0 -63.596761689409327,-42.214257391073687,0 -63.596355581039788,-42.214722830460794,0 -63.591385918426376,-42.220487603712833,0 -63.590825757846353,-42.221044482844476,0 -63.589356052245556,-42.222591099437885,0 -63.587966067967066,-42.224177927197758,0 -63.586657799368822,-42.225802696004045,0 -63.586290517635781,-42.226300658789121,0 -63.583594052005338,-42.229355495978005,0 -63.582782720267687,-42.230297371715352,0 -63.58183988713084,-42.231468023215783,0 -63.580931494863385,-42.232516524725433,0 -63.579833068753317,-42.233870628520783,0 -63.559638857244785,-42.259665720715887,0 -63.559245323796482,-42.260175000009028,0 -63.558859858170607,-42.260687673932161,0 -63.55848251360193,-42.261203671936549,0 -63.558113342211769,-42.261722923014418,0 -63.557752395000392,-42.262245355708679,0 -63.551516738140911,-42.27140106316542,0 -63.551179652434762,-42.271902874013634,0 -63.550850156293592,-42.272407458507445,0 -63.550528291253826,-42.272914753311305,0 -63.550214097896912,-42.273424694748087,0 -63.549907615844283,-42.273937218807063,0 -63.549608883752406,-42.274452261151723,0 -63.549317939307656,-42.274969757128126,0 -63.549034819221617,-42.275489641772651,0 -63.548759559226419,-42.276011849820442,0 -63.548492194070079,-42.276536315713344,0 -63.542229423378942,-42.28902959043581,0 -63.541961663758507,-42.289573203505505,0 -63.541702388340681,-42.29011907962326,0 -63.54145163202174,-42.290667145775629,0 -63.541209428561373,-42.29121732865444,0 -63.540975810577699,-42.291769554666502,0 -63.540750809543191,-42.29232374994357,0 -63.540534455780083,-42.292879840352079,0 -63.540326778456404,-42.293437751503106,0 -63.540127805581776,-42.293997408762159,0 -63.539937564003672,-42.294558737259443,0 -63.535664203893745,-42.307480198684061,0 -63.535318300865981,-42.308579246984628,0 -63.535046769771284,-42.309531894936121,0 -63.534181634514638,-42.312719843111196,0 -63.534078984194885,-42.3129281001791,0 -63.533293775999603,-42.314729623653193,0 -63.532600939151237,-42.316551903856308,0 -63.532001473372617,-42.318392332249651,0 -63.531496244976772,-42.320248274095533,0 -63.531085985582862,-42.322117072222028,0 -63.530771291023008,-42.323996050821037,0 -63.530552620442151,-42.32588251927438,0 -63.530430295592943,-42.327773776001983,0 -63.530426123493598,-42.327884606615363,0 -63.530194286906969,-42.334296794015025,0 -63.53017264642326,-42.336079297641213,0 -63.530243417509681,-42.337971999892254,0 -63.530410680950624,-42.339861359068685,0 -63.53067420580615,-42.341744668488133,0 -63.531033623156453,-42.343619229893065,0 -63.531268207509164,-42.344580230363832,0 -63.531200650716215,-42.350994698815505,0 -63.531198835703947,-42.35152030360188,0 -63.531204465471284,-42.352045893480671,0 -63.531217539583167,-42.352571410437477,0 -63.531238056782747,-42.353096796464676,0 -63.531266014991594,-42.3536219935676,0 -63.53130141130972,-42.354146943770971,0 -63.531745256886275,-42.360101770607059,0 -63.531789590584076,-42.360651502605315,0 -63.53184236983472,-42.361200824128638,0 -63.531903588003402,-42.361749663818543,0 -63.531973237358606,-42.362297950377254,0 -63.532051309072919,-42.362845612576962,0 -63.532137793224138,-42.363392579269174,0 -63.53223267879644,-42.36393877939382,0 -63.532335953681667,-42.364484141988598,0 -63.532447604680769,-42.365028596198215,0 -63.532567617505443,-42.365572071283481,0 -63.532825521720675,-42.367414254601286,0 -63.53318511381169,-42.369288807075883,0 -63.533640130784953,-42.371151924822094,0 -63.534189929101039,-42.373000938031488,0 -63.534833729215322,-42.374833196870057,0 -63.535570616648656,-42.376646075280632,0 -63.53626674490004,-42.378150070245326,0 -63.536714728293688,-42.380207783436219,0 -63.537644774860155,-42.38630565598293,0 -63.538125613053893,-42.392279543156839,0 -63.538174717027438,-42.392837162231217,0 -63.538232221436651,-42.393394339893639,0 -63.538298119329532,-42.393951006616703,0 -63.538372402706038,-42.394507092934958,0 -63.538455062519233,-42.395062529453561,0 -63.538546088676149,-42.395617246856929,0 -63.538645470038979,-42.396171175917274,0 -63.538753194426214,-42.396724247503506,0 -63.538869248614262,-42.397276392589617,0 -63.538993618339056,-42.397827542263457,0 -63.539443635814955,-42.399755498604009,0 -63.539534463580431,-42.402161907833651,0 -63.539581764205082,-42.403100056872567,0 -63.539590359509504,-42.403232506358108,0 -63.540198676283275,-42.412353536926346,0 -63.54022524746437,-42.412724032986972,0 -63.540809930461243,-42.420342644886979,0 -63.540685797086468,-42.422169349385179,0 -63.540217428765921,-42.428760898194625,0 -63.540152379125523,-42.429941737745878,0 -63.540125169718003,-42.431100634840682,0 -63.540057318171343,-42.439751573307632,0 -63.539870915670932,-42.441330386592817,0 -63.539294027960537,-42.445203350449148,0 -63.539256510011256,-42.445461346611033,0 -63.539035807355972,-42.447366613437261,0 -63.538096072354129,-42.45787882796705,0 -63.53797691573061,-42.459732406651391,0 -63.537958303714674,-42.460330475160141,0 -63.537952831630164,-42.460567952354296,0 -63.53750456085492,-42.476036831287047,0 -63.537491629027848,-42.477551343419648,0 -63.537532194815086,-42.478633474612728,0 -63.537334917071135,-42.479199071159172,0 -63.537146688851294,-42.47976635526792,0 -63.536967536727225,-42.480335247590467,0 -63.53679748600328,-42.480905668551372,0 -63.536636560712857,-42.481477538359179,0 -63.536484783614867,-42.482050777017761,0 -63.536342176190367,-42.482625304337255,0 -63.53620875863956,-42.483201039945513,0 -63.536084549878701,-42.483777903299128,0 -63.535563182398924,-42.486287606364471,0 -63.535448693097706,-42.486860769045265,0 -63.535343178109954,-42.487434874487398,0 -63.535246651829098,-42.488009845711304,0 -63.535159127444622,-42.4885856056191,0 -63.535080616939929,-42.489162077005233,0 -63.535011131090911,-42.489739182566602,0 -63.5348158508422,-42.491474598897391,0 -63.533375969774461,-42.496299051157642,0 -63.532883035344327,-42.498108341351369,0 -63.532584170310287,-42.499418526898985,0 -63.531660318893259,-42.503823851668805,0 -63.531547536437103,-42.504382385721897,0 -63.531231685209946,-42.506261287920253,0 -63.531012135644829,-42.508147686577118,0 -63.530889210832846,-42.510038880215937,0 -63.530863095564214,-42.511932160252726,0 -63.530933836013723,-42.513824814873026,0 -63.53110133962452,-42.515714132914923,0 -63.531365375190283,-42.517597407752163,0 -63.53172557313637,-42.519471941172633,0 -63.532181425999553,-42.521335047245913,0 -63.532732289106256,-42.523184056174451,0 -63.53337738144797,-42.525016318123633,0 -63.534115786753731,-42.526829207023674,0 -63.534681314021334,-42.528072005393881,0 -63.535781918008105,-42.530389619632388,0 -63.535693233849365,-42.531326048792842,0 -63.535679376768982,-42.531475577854025,0 -63.535556513834933,-42.533366771933537,0 -63.535530496814296,-42.535260049385002,0 -63.535601371751589,-42.537152698396952,0 -63.535769045907585,-42.539042007814537,0 -63.535854637339874,-42.539652031939859,0 -63.535585061139095,-42.540268307337023,0 -63.535255226253959,-42.54113238198336,0 -63.534054160034017,-42.542494135090678,0 -63.532737509555723,-42.544117998169817,0 -63.53150483473393,-42.54577752525902,0 -63.530357905813851,-42.547470341935011,0 -63.529298370771258,-42.549194025964056,0 -63.52905014618635,-42.54962452175586,0 -63.528208027960034,-42.551104101838547,0 -63.527485598615414,-42.552425684318806,0 -63.526605247994034,-42.554203654402258,0 -63.52581648033869,-42.556004973847166,0 -63.5251204324912,-42.557827064348672,0 -63.524518108862836,-42.559667317654984,0 -63.52422540647926,-42.560692504455282,0 -63.523386413296514,-42.56379109753933,0 -63.523171363119019,-42.564621689832038,0 -63.522758914522171,-42.566490337759134,0 -63.522442399493229,-42.568369182312694,0 -63.522222279889043,-42.570255533074601,0 -63.522098879643927,-42.572146688639378,0 -63.522074635395704,-42.573018406844106,0 -63.522050095304373,-42.574550289866082,0 -63.521814813804468,-42.575015998540088,0 -63.521587184150931,-42.575483780318713,0 -63.521367239938094,-42.575953566513306,0 -63.521155013634022,-42.576425288139504,0 -63.520950536575661,-42.576898875927228,0 -63.520753838964268,-42.577374260330821,0 -63.520564949860614,-42.577851371539296,0 -63.520383897180949,-42.578330139486589,0 -63.519841374513469,-42.579762278791961,0 -63.519547865897003,-42.580562532165537,0 -63.518945129157508,-42.58240273965535,0 -63.518437019625644,-42.584258480871121,0 -63.51802427315301,-42.586127098941759,0 -63.51770748924357,-42.588005918328626,0 -63.517487130147295,-42.58989224865087,0 -63.517363520149935,-42.591783388533536,0 -63.517336845059063,-42.59367662947281,0 -63.517407151887724,-42.595569259712704,0 -63.517428461660401,-42.595810062809321,0 -63.517011572017857,-42.597332126866085,0 -63.51659867839183,-42.599200732602732,0 -63.516281767004074,-42.601079541339075,0 -63.516061300292748,-42.602965862710093,0 -63.515937602703389,-42.604856995354126,0 -63.515910860174756,-42.606750230778097,0 -63.515981119822442,-42.60864285723423,0 -63.516148289820833,-42.610532163602741,0 -63.516390425194047,-42.612260456796498,0 -63.516373558467222,-42.613454569547244,0 -63.516443830132026,-42.615347194259158,0 -63.516611022566053,-42.617236498761656,0 -63.516874905054529,-42.61911977644877,0 -63.517235108287643,-42.620994329104356,0 -63.517691124839885,-42.622857470769532,0 -63.518242309847679,-42.6247065315941,0 -63.51888788188505,-42.626538861666383,0 -63.519626924036366,-42.628351834815625,0 -63.520458385164495,-42.630142852381859,0 -63.521381081373391,-42.631909346947424,0 -63.522393697662721,-42.633648786025105,0 -63.52349478977257,-42.635358675697361,0 -63.524682786216431,-42.63703656420131,0 -63.525955990498339,-42.638680045454329,0 -63.527312583512881,-42.640286762515132,0 -63.528750626123511,-42.641854410975597,0 -63.530268061916161,-42.643380742277586,0 -63.531862720124614,-42.64486356695096,0 -63.533532318722685,-42.646300757766966,0 -63.535274467680189,-42.647690252803585,0 -63.535375854377364,-42.647767937224636,0 -63.5383693852866,-42.650056568891799,0 -63.540080326580707,-42.651318648005002,0 -63.541524378154989,-42.652316829864318,0 -63.542534646772715,-42.652994979689602,0 -63.542621002998636,-42.653347062866146,0 -63.543173159867713,-42.655196020260384,0 -63.543819744662763,-42.657028227409846,0 -63.544559839025688,-42.658841058314351,0 -63.545392390319279,-42.660631914512308,0 -63.546316213091863,-42.662398228811817,0 -63.546633491719696,-42.662962379506155,0 -63.548212122805232,-42.665721478679188,0 -63.548503333724639,-42.666222779693577,0 -63.548801938048797,-42.666721707029488,0 -63.549107900428005,-42.667218201321475,0 -63.549421184634447,-42.66771220349208,0 -63.549741753566543,-42.668203654758912,0 -63.550069569253154,-42.668692496641668,0 -63.550317551526106,-42.669057268646064,0 -63.550393219778243,-42.669594910544966,0 -63.550727747271885,-42.671345554246464,0 -63.551162903121636,-42.673364024551098,0 -63.551189813877286,-42.673487845742351,0 -63.551647162307042,-42.675350871929574,0 -63.552199753671538,-42.677199790972352,0 -63.552846804547336,-42.679031953154237,0 -63.553587395915955,-42.680844732537103,0 -63.554420474435126,-42.682635530730472,0 -63.555199249471322,-42.684123575078296,0 -63.555639248137346,-42.685915193672308,0 -63.556192038110851,-42.687764095665067,0 -63.55683930284939,-42.689596237902798,0 -63.557580123031784,-42.691408994474756,0 -63.558413444991153,-42.693199767021866,0 -63.559338082181128,-42.694965988468084,0 -63.560352716834146,-42.696705126707798,0 -63.561455901810113,-42.698414688244767,0 -63.562646062633185,-42.700092221776529,0 -63.563921499713587,-42.701735321719383,0 -63.565280390751568,-42.703341631668842,0 -63.56672079332057,-42.704908847790648,0 -63.566962689347406,-42.70515170815527,0 -63.567944125969802,-42.706534693311198,0 -63.568458372149287,-42.707498668424343,0 -63.568732198028101,-42.708003948941865,0 -63.569013889273322,-42.708506873022792,0 -63.569303408792145,-42.709007374097745,0 -63.569600718452747,-42.709505385916401,0 -63.56990577908946,-42.710000842556255,0 -63.569785431905771,-42.710531863911832,0 -63.569673629669481,-42.711063900163921,0 -63.569570388314197,-42.711596876526585,0 -63.569475722571454,-42.71213071808009,0 -63.569389645968393,-42.712665349780984,0 -63.569312170825945,-42.71320069647291,0 -63.569243308256709,-42.713736682897213,0 -63.569183068163575,-42.714273233703246,0 -63.569131459238015,-42.714810273459229,0 -63.569088488958613,-42.715347726662664,0 -63.568639818265645,-42.715950584509187,0 -63.56749053440074,-42.717643674107229,0 -63.566428898569939,-42.719367608294171,0 -63.565456437158169,-42.721119920131784,0 -63.564574549313264,-42.722898101875813,0 -63.563784504906863,-42.724699608554118,0 -63.563087442677826,-42.726521861599778,0 -63.562484368561179,-42.728362252532555,0 -63.561976154204721,-42.730218146685097,0 -63.561563535676186,-42.732086886966904,0 -63.561247112362963,-42.733965797662627,0 -63.561027346065806,-42.735852188257667,0 -63.560904560288513,-42.737743357286327,0 -63.560878939724979,-42.73963659619735,0 -63.56095052994408,-42.741529193230683,0 -63.561119237273566,-42.743418437300477,0 -63.561384828883583,-42.745301621877957,0 -63.561746933069287,-42.747176048870124,0 -63.562092202853734,-42.74858016802942,0 -63.561759701706812,-42.750085537213849,0 -63.561443167640597,-42.751964440920474,0 -63.561223318502378,-42.753850825038974,0 -63.561100477922714,-42.755741988113378,0 -63.561074830682045,-42.757635221601149,0 -63.561146126778546,-42.75952315719546,0 -63.561358180976022,-42.762866650999527,0 -63.561527076660447,-42.764758218075208,0 -63.56179274216732,-42.766641397887192,0 -63.562154953514145,-42.768515820624721,0 -63.562613200459275,-42.770378800503231,0 -63.563166835002114,-42.772227667891194,0 -63.563815072262798,-42.774059773140223,0 -63.564556991559741,-42.775872490386746,0 -63.565391537682586,-42.777663221321767,0 -63.565438515737242,-42.777752827441631,0 -63.565682163535932,-42.77844132918446,0 -63.566424184395238,-42.780254035716311,0 -63.567258838108458,-42.782044754584682,0 -63.568184936251967,-42.783810918782976,0 -63.569201158993799,-42.785549996279812,0 -63.570306056945213,-42.787259493657494,0 -63.571498053200308,-42.788936959696748,0 -63.572775445561369,-42.790579988901321,0 -63.574136408946337,-42.792186224958641,0 -63.575578997975924,-42.793753364130467,0 -63.577101149735782,-42.795279158569308,0 -63.578700686711386,-42.796761419554961,0 -63.58037531988964,-42.798198020647597,0 -63.582122652024978,-42.799586900751564,0 -63.583940181063248,-42.800926067086131,0 -63.584812889137375,-42.801522133403992,0 -63.5858946739489,-42.802449960392302,0 -63.587642248926329,-42.803838761247405,0 -63.5894600215181,-42.805177844980904,0 -63.591345388089529,-42.806465290117977,0 -63.593295647502465,-42.807699249147959,0 -63.595308004986826,-42.808877951189466,0 -63.597379576149677,-42.809999704546193,0 -63.599507391117058,-42.811062899148233,0 -63.601688398801542,-42.812066008877188,0 -63.603900551235583,-42.812999609192779,0 -63.605161157720694,-42.814000834034211,0 -63.606979609122938,-42.815339653745973,0 -63.60886565187559,-42.816626824482853,0 -63.610816583865727,-42.817860499126382,0 -63.612829609353426,-42.819038907201858,0 -63.614901842982178,-42.820160357433409,0 -63.617030313922044,-42.821223240185255,0 -63.619211970138842,-42.822226029785597,0 -63.621443682783429,-42.823167286730097,0 -63.623722250694549,-42.824045659761239,0 -63.626044405008898,-42.824859887820836,0 -63.626604383646161,-42.825037414246687,0 -63.627119212492168,-42.825454419670052,0 -63.627640511216399,-42.825867049521591,0 -63.628168211282869,-42.826275249445359,0 -63.628702243308162,-42.826678965667824,0 -63.629242537070631,-42.82707814500499,0 -63.629789021519635,-42.827472734869296,0 -63.630341624784698,-42.827862683276798,0 -63.63090027418518,-42.828247938853735,0 -63.631464896239763,-42.828628450843738,0 -63.632035416676025,-42.829004169114199,0 -63.632611760440376,-42.829375044163093,0 -63.634833811047095,-42.830789769500953,0 -63.63601078460276,-42.831522072907241,0 -63.638024740961534,-42.832700057306063,0 -63.640097896529305,-42.833821070665039,0 -63.642227279145757,-42.834883503973778,0 -63.644409835460564,-42.835885832204511,0 -63.646642435324949,-42.836826616514109,0 -63.648921876296278,-42.8377045063229,0 -63.651244888250112,-42.838518241265959,0 -63.653608138092459,-42.839266653014811,0 -63.656008234564993,-42.839948666966094,0 -63.658441733137614,-42.840563303795768,0 -63.66090514097904,-42.841109680875235,0 -63.663394921999974,-42.841587013548242,0 -63.663798939335074,-42.841652559228635,0 -63.665206648308676,-42.842541221168247,0 -63.667221531330235,-42.843718711213391,0 -63.669295598374795,-42.844839214785516,0 -63.671425875965539,-42.845901123604826,0 -63.673609309459124,-42.846902913395411,0 -63.6758427674392,-42.847843146086412,0 -63.678123046223007,-42.848720471889706,0 -63.680446874474903,-42.849533631249969,0 -63.680912992222467,-42.849681085005976,0 -63.681234132764473,-42.849899760002515,0 -63.683187578379453,-42.851132252761197,0 -63.685203089394996,-42.852309439128128,0 -63.687277776867205,-42.853429629576461,0 -63.689408666423525,-42.854491216274774,0 -63.691592702537093,-42.855492675408769,0 -63.693826752921169,-42.856432569381745,0 -63.696107613037078,-42.857309548891322,0 -63.698432010709411,-42.858122354879207,0 -63.70079661084101,-42.858869820350826,0 -63.70319802022167,-42.859550872062144,0 -63.705632792423124,-42.860164532071742,0 -63.708097432772774,-42.860709919155184,0 -63.710588403399335,-42.861186250079591,0 -63.713102128342868,-42.861592840737309,0 -63.713550265230637,-42.861652340164198,0 -63.714774404996071,-42.861970378207829,0 -63.716608635475339,-42.862425397107444,0 -63.719073471805494,-42.862970551853678,0 -63.721564627332356,-42.863446647669342,0 -63.724078525828467,-42.863853000784914,0 -63.726611558160528,-42.864189027549628,0 -63.729160087505775,-42.864454245276605,0 -63.73172045460889,-42.864648272941849,0 -63.73428898307332,-42.864770831736401,0 -63.736861984677248,-42.864821745470806,0 -63.739435764707906,-42.864800940830975,0 -63.742006627305557,-42.864708447485519,0 -63.744570880809022,-42.864544398043968,0 -63.745180472243341,-42.864494778768993,0 -63.748242384098411,-42.86423520976733,0 -63.750186739777519,-42.864049406418907,0 -63.752726720600066,-42.863742984690425,0 -63.755249092401918,-42.863366020082523,0 -63.757750233570903,-42.862919053676933,0 -63.760226553176544,-42.86240272706231,0 -63.761030945722709,-42.86221052135074,0 -63.763188132320451,-42.862403134087174,0 -63.765720294645263,-42.86259387402859,0 -63.7665398349531,-42.862633691123726,0 -63.767698309902606,-42.863120026208129,0 -63.769980520665364,-42.863995561294722,0 -63.772306198525314,-42.86480689312264,0 -63.774672006530075,-42.865552856816009,0 -63.775062428327594,-42.865663286362548,0 -63.776013018943829,-42.866098113923769,0 -63.778248795978278,-42.867036395344137,0 -63.780531306817849,-42.867911726029071,0 -63.782857276896053,-42.868722849289206,0 -63.785223368838039,-42.869468600548259,0 -63.787626187272465,-42.870147909026592,0 -63.790062283729604,-42.87075979928953,0 -63.792528161618215,-42.871303392658142,0 -63.795020281274383,-42.871777908480141,0 -63.797535065073539,-42.872182665259579,0 -63.798513989837275,-42.872311870991432,0 -63.799865185414887,-42.872569075880442,0 -63.80238003722971,-42.872973727532809,0 -63.804913937571477,-42.873308037870963,0 -63.807463248360378,-42.873571526678674,0 -63.808934589463099,-42.873682004567762,0 -63.810427625472208,-42.874307948695112,0 -63.812710881766769,-42.87518265241382,0 -63.815037569818031,-42.875993135897339,0 -63.817404351212041,-42.87673823548861,0 -63.819807829579588,-42.877416881344566,0 -63.822244555495786,-42.878028098983194,0 -63.824711031458413,-42.878571010692745,0 -63.827188383839271,-42.879042147578055,0 -63.830013996208272,-42.879537938123356,0 -63.830731944519876,-42.879661156159564,0 -63.831451747534381,-42.879778380920044,0 -63.83217331269541,-42.879889597325288,0 -63.832896547218247,-42.879994791068178,0 -63.833621358101965,-42.88009394861605,0 -63.83434765214129,-42.880187057212432,0 -63.835075335938839,-42.88027410487863,0 -63.835804315917052,-42.88035508041542,0 -63.836534498330451,-42.880429973404247,0 -63.83726578927763,-42.88049877420891,0 -63.83942938960346,-42.881481947165049,0 -63.841666724856587,-42.88241902020826,0 -63.843950742690566,-42.8832931155371,0 -63.84627816635863,-42.884102978236371,0 -63.848645656382516,-42.884847445540778,0 -63.851049815367759,-42.885525448515985,0 -63.853487192904552,-42.886136013604023,0 -63.855954290547743,-42.88667826403158,0 -63.858447566868179,-42.887151421077995,0 -63.860963442567773,-42.887554805202157,0 -63.863498305651213,-42.887887837026021,0 -63.866048516646181,-42.888150038173535,0 -63.868610413864637,-42.888341031963137,0 -63.871180318697377,-42.888460543953805,0 -63.873754540933483,-42.888508402343049,0 -63.876329384097609,-42.888484538216353,0 -63.878901150796423,-42.888388985648184,0 -63.879823400269686,-42.888337190492827,0 -63.882246023416307,-42.888188909384759,0 -63.883888764130795,-42.888073565574253,0 -63.884520379432715,-42.888014608649236,0 -63.886317221249271,-42.888761269882963,0 -63.888602135980889,-42.889634491439402,0 -63.8909304155356,-42.890443462552788,0 -63.893298719195656,-42.891187021739199,0 -63.895703648387901,-42.891864101369663,0 -63.898141751586927,-42.892473729214075,0 -63.90060952929646,-42.893015029847042,0 -63.903103439102239,-42.893487225914328,0 -63.90525253990068,-42.893835456607221,0 -63.907524056749125,-42.894175252042949,0 -63.907891421920162,-42.894229427481442,0 -63.910426850671293,-42.894561430314667,0 -63.91297757571413,-42.894822595121845,0 -63.915539934616746,-42.895012546713382,0 -63.918110248102131,-42.895131012148781,0 -63.920684825368724,-42.895177821132435,0 -63.923259969428507,-42.895152906260947,0 -63.925831982454099,-42.895056303121791,0 -63.928397171127671,-42.89488815024287,0 -63.930951851982648,-42.894648688893227,0 -63.933178610192321,-42.894376602895001,0 -63.934303123786584,-42.894846284833434,0 -63.93658897464087,-42.895718566054995,0 -63.938918145649993,-42.896526577711548,0 -63.941287294804781,-42.897269159698091,0 -63.94369302230713,-42.897945245790552,0 -63.946131875475025,-42.898553865187459,0 -63.948600353725723,-42.899094143913992,0 -63.951094913629987,-42.899565306085989,0 -63.953611974030579,-42.899966675032999,0 -63.956147921216505,-42.900297674277205,0 -63.958699114145936,-42.900557828368115,0 -63.961261889709753,-42.90074676357122,0 -63.963832568028153,-42.900864208409338,0 -63.966403793810194,-42.900915708033146,0 -63.966996484637292,-42.901128103385652,0 -63.96936616734078,-42.901870113946039,0 -63.971772401422484,-42.902545619094994,0 -63.974211733466859,-42.90315364886645,0 -63.975509715702174,-42.903437381586038,0 -63.976149630365931,-42.903698844950846,0 -63.978436425798883,-42.904570307646345,0 -63.980766505021812,-42.905377484217638,0 -63.983136524710964,-42.906119215759539,0 -63.985543083808139,-42.906794437270285,0 -63.987982728427617,-42.907402179191507,0 -63.988390502615125,-42.907496433747006,0 -63.991864362482744,-42.908290522283835,0 -63.992589428993647,-42.908453186805069,0 -63.993316993776112,-42.908609712741466,0 -63.99404696060256,-42.908760079382581,0 -63.994779232925382,-42.90890426683255,0 -63.995513713889714,-42.909042256012789,0 -63.996250306346482,-42.909174028664424,0 -63.996988912865071,-42.90929956735085,0 -63.997729435746578,-42.909418855460068,0 -63.998471777036684,-42.909531877206703,0 -63.999262680003213,-42.909753659549018,0 -64.001702586164228,-42.910361113715076,0 -64.004172062604425,-42.910900211773601,0 -64.006667564449771,-42.911370179538899,0 -64.009185509179673,-42.911770342058887,0 -64.011722281803486,-42.912100124591802,0 -64.014274240085086,-42.912359053438479,0 -64.016837719808493,-42.912546756628117,0 -64.017979032434113,-42.912607208490904,0 -64.019850562169992,-42.91269469630965,0 -64.021224308107747,-42.912825315933986,0 -64.021917949078812,-42.912888602941798,0 -64.022612439107746,-42.912946646883015,0 -64.023307704787186,-42.912999441618823,0 -64.024003672627188,-42.913046981565131,0 -64.024700269062819,-42.913089261693386,0 -64.025463992353778,-42.913132710434425,0 -64.026047397994574,-42.91323896176393,0 -64.026632685846437,-42.913339468382148,0 -64.027219751168076,-42.91343421229805,0 -64.027808488898387,-42.913523176551806,0 -64.028398793675464,-42.913606345217922,0 -64.035774580887406,-42.914663908278897,0 -64.037691318047194,-42.91491778717328,0 -64.044914480550645,-42.915795992098481,0 -64.04558715298495,-42.916010459317576,0 -64.046263416223198,-42.916218741025922,0 -64.046943164953049,-42.916420804773388,0 -64.047626293315716,-42.916616619077843,0 -64.048312694922785,-42.916806153430613,0 -64.049002262872776,-42.91698937830084,0 -64.049694889767892,-42.917166265140317,0 -64.050390467730779,-42.91733678638797,0 -64.051088888421503,-42.917500915474065,0 -64.052779961410593,-42.918143823944575,0 -64.054296158998127,-42.918676736837504,0 -64.056662670625229,-42.91948223253403,0 -64.057478105258795,-42.919754993085895,0 -64.059849648548649,-42.920495162743741,0 -64.062257658584372,-42.921168796499273,0 -64.064698679379347,-42.921774927076932,0 -64.067169207212544,-42.922312684081191,0 -64.069665695687561,-42.922781295255461,0 -64.072184560855462,-42.923180087599491,0 -64.07272817496164,-42.923250443129525,0 -64.075061115476743,-42.923902749689795,0 -64.077502378752442,-42.924508611370555,0 -64.079973136416783,-42.925046095945113,0 -64.082469841740775,-42.925514431548805,0 -64.084988910461561,-42.925912945577906,0 -64.087526725961609,-42.926241065663064,0 -64.088628873370027,-42.926352135089616,0 -64.089298244624004,-42.926483176771747,0 -64.089969583276144,-42.926608670076305,0 -64.090642804120634,-42.926728599070209,0 -64.091317821711087,-42.926842948526442,0 -64.091994550371538,-42.926951703926321,0 -64.092672904207276,-42.927054851461016,0 -64.093352797115855,-42.927152378033469,0 -64.09403414279808,-42.927244271260143,0 -64.098264180536688,-42.927805507368255,0 -64.099842764850649,-42.928000856526268,0 -64.102395816904405,-42.928257838851238,0 -64.10496029260581,-42.928443584881911,0 -64.107532235300695,-42.928566785152789,0 -64.11010850044191,-42.92860936062101,0 -64.112685387485996,-42.92857124993958,0 -64.11525864897304,-42.928470409679562,0 -64.117824863730291,-42.928298027037208,0 -64.120380346816646,-42.928054349372772,0 -64.122921428795564,-42.927739726420249,0 -64.124311895627088,-42.927527492531986,0 -64.12505585050306,-42.927477463873579,0 -64.125424631287999,-42.927442278231979,0 -64.126079877625884,-42.927471268610894,0 -64.128656124559271,-42.927513425812634,0 -64.131232698206176,-42.927483853835732,0 -64.13380589867738,-42.927382594974098,0 -64.136372030945338,-42.927209794460076,0 -64.138927410188671,-42.926965700255629,0 -64.141468367121576,-42.926650662694421,0 -64.143991253300115,-42.926265133976393,0 -64.146492446398099,-42.925809667514372,0 -64.148968355443415,-42.925284917135045,0 -64.151415426008654,-42.92469163613417,0 -64.153398836095789,-42.924148739508134,0 -64.155427808885278,-42.923954614708485,0 -64.157968570006943,-42.923639206658329,0 -64.16049124219515,-42.92325330969777,0 -64.16299220343349,-42.922797477769677,0 -64.165467863085823,-42.922272365226512,0 -64.167914667086009,-42.92167872588503,0 -64.170329103073257,-42.921017411937243,0 -64.172707705465697,-42.920289372719267,0 -64.175047060464792,-42.919495653339759,0 -64.177343810982507,-42.918637393170165,0 -64.179594661484714,-42.917715824198936,0 -64.181796382743343,-42.916732269252037,0 -64.183945816490308,-42.91568814008248,0 -64.184745300239058,-42.915277335290227,0 -64.186406233178317,-42.914410761355811,0 -64.187700776462393,-42.913718341830126,0 -64.189736407583723,-42.912557614051991,0 -64.191710746378732,-42.911341060737243,0 -64.193620962846495,-42.910070427769533,0 -64.195464319511032,-42.908747538547033,0 -64.197238175349142,-42.907374291351843,0 -64.198939989575791,-42.905952656612044,0 -64.200567325282336,-42.904484674060377,0 -64.202117852921901,-42.902972449793452,0 -64.203589353636787,-42.901418153236634,0 -64.203832927300382,-42.901138889120929,0 -64.204270772911144,-42.900824551714898,0 -64.206044204599053,-42.899451158487693,0 -64.207745596647271,-42.898029383252862,0 -64.209372512754413,-42.896561265943298,0 -64.210922623976842,-42.895048912847592,0 -64.212393712055373,-42.893494493574266,0 -64.213004027356206,-42.89281078099377,0 -64.213469157056423,-42.892280300619731,0 -64.213865109196362,-42.891823640422167,0 -64.214253877127589,-42.891363656316244,0 -64.214635409385707,-42.890900409379412,0 -64.21500965547051,-42.890433961121147,0 -64.215376565852708,-42.889964373474584,0 -64.215736091980347,-42.889491708788427,0 -64.21625305183008,-42.88915059778094,0 -64.216764147097763,-42.888804743531807,0 -64.217269297359252,-42.888454200525629,0 -64.217768423131133,-42.888099023985049,0 -64.218261445883101,-42.887739269861591,0 -64.218748288050278,-42.887374994827177,0 -64.219228873045552,-42.887006256264939,0 -64.219703125271522,-42.886633112260249,0 -64.220170970132401,-42.886255621591417,0 -64.222029925571562,-42.885194293308828,0 -64.224002756544778,-42.883977150021046,0 -64.22591146399553,-42.882705944988075,0 -64.227753312621857,-42.881382502425105,0 -64.229525663572005,-42.880008721403918,0 -64.231225978227201,-42.878586573113999,0 -64.232851821836164,-42.877118098019942,0 -64.23299002031257,-42.876987889221802,0 -64.234192298556479,-42.87585122421099,0 -64.234737717452632,-42.875438901877068,0 -64.23527637620532,-42.875021802363335,0 -64.23580819756539,-42.874599985587047,0 -64.236333105270518,-42.874173512141994,0 -64.236851024056278,-42.873742443289572,0 -64.23736187966685,-42.873306840950313,0 -64.237865598865653,-42.872866767694696,0 -64.238362109445816,-42.872422286734192,0 -64.238851340240586,-42.871973461912084,0 -64.23933322113345,-42.871520357694372,0 -64.239807683068193,-42.871063039160319,0 -64.240274658058695,-42.870601571993262,0 -64.240739830991046,-42.870245553936748,0 -64.241199078509851,-42.869885399597976,0 -64.241652332713301,-42.869521162304714,0 -64.242099526590621,-42.869152895988606,0 -64.242540594031922,-42.868780655176799,0 -64.242975469837873,-42.868404494984084,0 -64.243404089729538,-42.868024471104675,0 -64.243826390357739,-42.867640639803881,0 -64.244242309312398,-42.867253057909707,0 -64.245223782946567,-42.866547346552764,0 -64.246995319604551,-42.865173277062496,0 -64.248694822888069,-42.863750851272066,0 -64.250319859213334,-42.86228211004174,0 -64.251868102340097,-42.860769160548621,0 -64.253337336694344,-42.859214173249967,0 -64.254725460529244,-42.857619378755821,0 -64.256030488918697,-42.855987064615832,0 -64.257250556580246,-42.85431957202497,0 -64.258383920523144,-42.85261929245312,0 -64.259428962517674,-42.850888664203367,0 -64.259862142110549,-42.850091231176876,0 -64.260991640604374,-42.848895356439002,0 -64.262375766983325,-42.847304730031546,0 -64.2642912835651,-42.845008969853552,0 -64.264681680447438,-42.84453592170108,0 -64.265064546716218,-42.844059553592288,0 -64.265439830392125,-42.843579930412588,0 -64.265807480532303,-42.843097117489357,0 -64.266167447237208,-42.8426111805829,0 -64.2665196816573,-42.842122185877699,0 -64.266864135999668,-42.841630199972947,0 -64.267200763534404,-42.84113528987406,0 -64.267529518600895,-42.84063752298291,0 -64.268508968879971,-42.839511481245388,0 -64.269522061886008,-42.838243455957112,0 -64.270236025032361,-42.8375464379018,0 -64.270384026418242,-42.837463065251335,0 -64.271794310633325,-42.836646653676432,0 -64.273764614693846,-42.835428598205887,0 -64.275670799896332,-42.834156508648753,0 -64.277510134570846,-42.832832210482628,0 -64.279279983484543,-42.831457603999731,0 -64.280977811618484,-42.830034661566081,0 -64.282601187797439,-42.828565424777395,0 -64.284147788167061,-42.827052001515952,0 -64.284622200221108,-42.826562821493745,0 -64.285633053439113,-42.825511242617118,0 -64.289787066811826,-42.822146353930073,0 -64.291399555150562,-42.820791851015869,0 -64.293022440197547,-42.819322455618568,0 -64.294568553051576,-42.817808880755649,0 -64.296035681198973,-42.816253297773578,0 -64.29732111132337,-42.814778345033218,0 -64.302956250007881,-42.808055117585894,0 -64.303056842504489,-42.807934705213647,0 -64.304359528768998,-42.806301786256064,0 -64.305577293098509,-42.804633725191891,0 -64.306708395803156,-42.80293291429615,0 -64.307751221891692,-42.801201792623573,0 -64.308704283354558,-42.799442842499509,0 -64.308797867715967,-42.799257545170754,0 -64.309287467133487,-42.798643656728011,0 -64.309366671423589,-42.798539606277636,0 -64.309936562971444,-42.797788832447864,0 -64.312713449580613,-42.794313689969826,0 -64.313384605745625,-42.793454334393815,0 -64.31460186759918,-42.791786165199802,0 -64.315732480615466,-42.79008525317429,0 -64.316774830503704,-42.788354037514871,0 -64.317727429934635,-42.786595000679327,0 -64.318588920637978,-42.784810664815218,0 -64.318958813201107,-42.783971454482064,0 -64.320289781489151,-42.780858358001694,0 -64.320322736000264,-42.780781055614391,0 -64.321302109241245,-42.778477089529027,0 -64.322372387984572,-42.776314313184074,0 -64.322974476415354,-42.775044800510109,0 -64.323743374537372,-42.773237687138163,0 -64.324418855092077,-42.771410427323417,0 -64.324999958023838,-42.769565640373656,0 -64.325226522818923,-42.768745296526248,0 -64.325369648942555,-42.768203914354487,0 -64.325532951456807,-42.767884078033781,0 -64.326377302440122,-42.766132229561556,0 -64.327145983860007,-42.764325087047276,0 -64.327821259850992,-42.76249780105023,0 -64.328402170647635,-42.760652990914657,0 -64.328856670827989,-42.758925310119707,0 -64.329692873215464,-42.755417250179242,0 -64.329724090615102,-42.755285240570309,0 -64.330113884479914,-42.753413331206055,0 -64.330407256528119,-42.751531890663877,0 -64.330603795113447,-42.749643614972037,0 -64.330703227443863,-42.74775120971146,0 -64.330705419922282,-42.745857386136429,0 -64.330637288638272,-42.7445007212199,0 -64.336102206241534,-42.744087846611734,0 -64.999170651022169,-42.698602805080128,0 -65.003496389311181,-42.698791790774926,0 -65.012701156789788,-42.699193387579236,0 -65.02106965224786,-42.699285070332671,0 -65.046691663073474,-42.699188527904411,0 -65.039712359479751,-42.677320043310807,0 -65.03808385530786,-42.671271313529616,0 -65.037999124008692,-42.654173780455693,0 -65.040945904793361,-42.637878343005269,0 -65.043409781429958,-42.621772581689548,0 -64.957588218111979,-42.585309336603025,0 -64.858333330000065,-42.560129349051671,0</coordinates>
          </LinearRing>
        </outerBoundaryIs>
      </Polygon>
    </Placemark>
  </Document>
</kml>
